#dP2023  9 20  6  0  0.00000000      96 __u+U ITR00 EXT  IAC
## 2280 280800.00000000   900.00000000 60207 0.2500000000000
+  120   C06C07C08C09C10C11C12C13C14C16C19C20C21C22C23C24C25
+        C26C27C28C29C30C32C33C34C35C36C37C38C39C40C41C42C43
+        C44C45C46E02E03E04E05E07E08E09E10E11E12E13E14E15E18
+        E19E21E24E25E26E27E30E31E33E34E36G01G02G03G04G05G06
+        G07G08G09G10G11G12G13G14G15G16G17G18G19G20G21G22G23
+        G24G25G26G27G28G29G30G31G32J02J03J04R01R02R03R04R05
+        R07R08R09R11R12R13R14R15R16R17R18R19R20R21R22R24R25
+        R26  0  0  0  0  0  0  0  0  0  0  0  0  0  0  0  0
++         8  9 11  9  9 10  8 10  9 12  9 10  8  7  9  9  7
++         8  8  8  8  9 10  8  7  8  8  8 10  9 11  9  9  9
++         8 10  7  7  7  8  8  7  7  9  8  8  7  6  7  8  8
++         8  8  8  7  6  8  7  9  8  7  8  6  7  8  8  7  7
++         9  7  8  7  7  7  7  7  8  8  7  6  7  6  6  8  8
++         7  8  8  8  9  8  9  9  7  8  8  8  8  9  8  7  7
++         8  8  7  9  8  8  8  8  8  7 10  9  7  8  8  7  8
++         8  0  0  0  0  0  0  0  0  0  0  0  0  0  0  0  0
%c M  cc GPS ccc cccc cccc cccc cccc ccccc ccccc ccccc ccccc
%c cc cc ccc ccc cccc cccc cccc cccc ccccc ccccc ccccc ccccc
%f  0.0000000  0.000000000  0.00000000000  0.000000000000000
%f  0.0000000  0.000000000  0.00000000000  0.000000000000000
%i    0    0    0    0      0      0      0      0         0
%i    0    0    0    0      0      0      0      0         0
/* IAC                                ULTRA-RAPID PREDICTION
/* S/V CLOCKS ARE ALIGNED TO GNSS TIME                      
/* G:C1WC2W R:C1PC2P E:C1XC5X C:C2IC6I J:C1CC2S             
/* PCV:IGS20_2274 OL/AL:FES2004  NONE     YN ORB:CoN CLK:CoN
*  2023 09 21  0 45  0.00000000
PC06 -16336.694475  26937.356247 -28146.178336     42.809530
PC07  -9408.965811  40131.018225  -8247.720428    -36.524730
PC08   -272.168815  24360.101657  34446.524314    335.662204
PC09  -9377.802099  26091.628396 -31504.459635    140.481958
PC10  -3187.340541  41713.602759  -1195.627641   -185.130765
PC11  -6711.089863  19258.488673  19104.922649    842.742214
PC12 -21760.891740  17089.767065   3594.692735    929.704865
PC13   5788.294890  28115.651451  31130.545025    355.195416
PC14    614.028233  27769.434055   2377.099103    443.124689
PC16 -21716.308873  25982.170827 -25068.454798    -89.485514
PC19  -6813.975878 -26169.014796   6945.998639   -970.456226
PC20   4598.980359 -25755.814604  -9744.034001    267.299654
PC21 -14245.301922   9608.128010  21989.074021   -970.980575
PC22 -14911.015850 -11580.732848  20545.123261   -298.934618
PC23  24907.445993  12563.661568   -848.348061   -865.877110
PC24  -7879.490749  14327.992232 -22620.599462    413.676967
PC25  13279.473758  18592.716602 -16044.473193    215.730530
PC26 -22654.750719   2522.090103 -16087.695774   -180.593735
PC27  24508.857782 -12443.425888   4791.458565    202.178715
PC28  20947.935006   1375.513093  18396.098754    151.777376
PC29  -4154.478811 -16283.021176 -22283.232071    177.281699
PC30  14743.841172 -20718.954263 -11483.226564     -5.225674
PC32  14204.695929  -9618.713415 -22006.620106   -528.338445
PC33   6913.995249  26155.189966  -6823.452527   -966.619451
PC34 -13583.775528  20855.554951  12624.476018    263.983430
PC35 -20995.816213   -706.554587 -18394.623905    542.148362
PC36 -12008.179582 -18947.924935  16618.322032   -216.364664
PC37  23191.827787  -1323.670118  15498.803986   -832.408318
PC38  -9312.413492  21360.476310  35177.967146    106.112291
PC39 -25349.817398  26608.751658 -20847.179929     -4.872902
PC40 -14975.037471  37504.423614 -11614.411956    -37.239777
PC41  14815.731737  12291.295338 -20156.586892   -877.081704
PC42  -5535.873923  25005.668967  11089.665726   -541.860154
PC43   3279.603012  16857.677604  21989.803076     40.626793
PC44 -24095.934601  13193.675742  -4990.676279    237.721716
PC45 -25042.335880 -12278.234456    333.042933    -27.765494
PC46   6583.352815 -14816.059419  22713.967180    -85.833102
PE02   1811.220306  24538.503791 -16462.946233     64.299364
PE03  -8040.066612  27294.061968  -8147.986559    -57.871463
PE04  -7519.464419 -18493.099246  21855.523388   -216.660118
PE05 -18965.687416  20237.343428  10336.973732     20.261917
PE07  18690.885718   -901.336620 -22937.747013    -76.336524
PE08   7075.844202  18796.888281 -21745.939655   -149.398923
PE09 -18510.342541    806.714383  23077.240532   -163.646234
PE10 -24654.490968  -8177.682762 -14186.666028   -565.267643
PE11 -29209.737007  -1858.721973  -4435.203078   2965.138531
PE12 -16803.190001 -12823.566353 -20728.428937   -705.663562
PE13  29065.928855   2251.395421   5142.896805    -19.677545
PE14 -17275.630623  17020.839981  -6612.609237    346.237293
PE15  16394.659649  12898.882728  21005.417423    -54.871910
PE18  13811.701614 -28225.140051  -4564.785288    554.569424
PE19  10031.697231 -27230.234936   5829.618113  -1588.726521
PE21  12976.647644 -10821.897844  24309.429205   -553.804413
PE24 -21039.208211 -10439.602320 -18009.734844   -332.760885
PE25 -13206.803229  10468.296855 -24323.380065     -2.104796
PE26  24089.086466  -9982.212029 -14019.328952    228.464972
PE27  21002.684822   9842.690086  18403.234749   -155.056548
PE30  16266.602997  24703.090960   1319.541219   -516.602227
PE31 -16551.579769 -24478.378768  -1702.724529     -5.577012
PE33   6426.821357 -15780.376187 -24206.646093     -0.321567
PE34  -5638.392163  15855.472636  24341.941317    -68.137939
PE36 -24547.887039   9557.436556  13496.661161   -119.067411
PG01 -10277.696520 -13624.197026 -20787.956804    165.038057
PG02  -2796.883589 -14603.228026 -21513.948141   -551.540917
PG03 -12283.662601 -23510.325195  -2376.629289   -124.038824
PG04  -4218.018091 -18307.819821  18732.044305    161.948880
PG05   1769.240444  21513.979411  15227.424939   -143.499501
PG06 -24415.873152   5977.307256   8788.264169    546.483309
PG07 -24078.854894  -6777.668898  10082.689176     61.668701
PG08   3326.842948 -23682.628701 -11187.874376   -143.278157
PG09 -11808.929452 -10072.639110  21463.701609    -54.183532
PG10  16826.012307   1374.276181 -20408.091167    -54.199414
PG11 -14405.422735  12390.640152  18549.859498   -378.554142
PG12   8346.786933  24705.804156  -5522.991151   -427.072793
PG13 -12651.128923  22696.272075  -5113.487183    574.950413
PG14 -18206.681968  -4802.358128 -18773.520789    190.987056
PG15    624.913685  23759.482215 -12091.806878     79.495137
PG16   4828.883355 -18483.644316  17945.454230   -451.159001
PG17 -18451.611127   6847.722678 -17453.225729    723.818394
PG18  25015.097874   5154.884981   7625.271478   -423.957516
PG19 -19429.795461  13338.023289 -12104.618003    374.284940
PG20  -7240.831672  14610.797481  21034.442643    410.839797
PG21   -263.523407 -14960.277063 -21384.688685    148.492044
PG22 -15072.133736   2731.581007 -21209.212011    117.878423
PG23  19051.375637  13328.725586 -12994.754029     71.249379
PG24   5828.572011  15248.939162 -21376.232849   -325.113485
PG25  17311.229261  19189.526151   6389.166449    468.815872
PG26  12131.300903 -10101.847814  21224.777934    227.481182
PG27  12597.915429 -23122.288277    -39.326230    -42.798813
PG28  25045.941513  -5915.809523   6550.741649    -12.711715
PG29  10839.672491  10457.680813  21823.868880   -609.476139
PG30 -26704.847568    265.040707    118.591381   -485.936693
PG31  19550.791131 -10402.168423  14774.805446   -223.645148
PG32  18272.524130 -11234.931883 -15347.536629   -561.100993
PJ02 -20687.785942  22688.181823 -24295.070094     -4.342011
PJ03 -30826.535643  26759.692014  15568.383111     -3.184103
PJ04 -27096.608913  28448.465197  21277.722747     70.703849
PR01  -6996.935110 -17290.928174  17397.758504     66.075933
PR02 -10983.214699   1188.434957  23032.992209    -22.405547
PR03  -9034.783674  18641.696419  14967.597999     85.597697
PR04  -2337.889467  25386.330653  -1098.476433    203.640737
PR05   5627.904809  18542.976746 -16599.606768    119.353601
PR07   8770.924996 -19205.107548 -14240.187168     65.117687
PR08   2008.824168 -25373.011014   1413.249380    -72.612310
PR09  21076.921881   6790.860309  12610.426133    143.383700
PR11  -4494.629919 -14896.932848  20231.595690   -169.962895
PR12 -18912.847986 -16400.493992   4892.756714     31.509472
PR13 -21439.076496  -8633.324213 -10801.428376    -39.414624
PR14 -10764.351162   5715.834316 -22394.144870     25.295739
PR15   5577.425208  15503.652651 -19446.905639     86.035525
PR16  18912.549675  16293.603427  -5142.746588     18.890247
PR17 -20659.830471  12847.271635   7592.653346     18.915241
PR18  -7793.730086  13285.080877  20361.510167    102.957836
PR19   7575.627081   8012.107232  23003.478547   -248.001286
PR20  22765.479419  -3704.247581  10870.053151   -100.403702
PR21  20319.974605 -12910.579526  -8484.555683    -39.558195
PR22   7066.791256 -13191.447396 -20628.318506     85.070756
PR24 -22883.974354   4725.938012 -10181.473770    -25.172305
PR25  21233.522241 -12018.030335  -7483.744481     31.955890
PR26   2088.927795 -25417.325974    906.512828    -23.235211
EOF
